GPS BIIA-10 (PRN 32)
1 20959U 90103A   14136.46198531  .00000036  00000-0  00000+0 0  3688
2 20959  54.3039 210.3268 0114254 349.6316  10.2176  2.00555766171891
GPS BIIA-14 (PRN 26)    
1 22014U 92039A   14136.36793514 -.00000022  00000-0  00000+0 0  1496
2 22014  55.8702 271.0699 0211573  73.2268 356.2044  2.00561497153613
GPS BIIA-21 (PRN 09)    
1 22700U 93042A   14136.55229833 -.00000045  00000-0  00000+0 0  4041
2 22700  56.2722 325.6466 0169373 103.7631 101.4905  2.00563235152968
GPS BIIA-23 (PRN 04)    
1 22877U 93068A   14137.19052789  .00000066  00000-0  00000+0 0  7538
2 22877  53.7728 144.9523 0103527  62.1563  46.9932  2.00555664150629
GPS BIIA-25 (PRN 03)    
1 23833U 96019A   14136.77724633 -.00000010  00000-0  10000-3 0  9208
2 23833  53.7605  76.7605 0167396  79.1473 282.7052  2.00550022132908
GPS BIIA-26 (PRN 10)    
1 23953U 96041A   14137.11420473  .00000035  00000-0  00000+0 0  4071
2 23953  53.9780 206.2033 0133661  48.8173 307.3017  2.00556148130694
GPS BIIR-2  (PRN 13)    
1 24876U 97035A   14137.06234743 -.00000020  00000-0  00000+0 0  8616
2 24876  56.0194 271.5416 0051982 131.2211 180.9667  2.00573834123225
GPS BIIA-28 (PRN 08)    
1 25030U 97067A   14137.24710644 -.00000047  00000-0  00000+0 0  8263
2 25030  57.1149 332.4747 0137892 201.6858 152.8814  2.00601193121127
GPS BIIR-3  (PRN 11)    
1 25933U 99055A   14136.88029796  .00000050  00000-0  10000-3 0  2929
2 25933  51.0271 127.2138 0146876  73.4977 288.1041  2.00559511107047
GPS BIIR-4  (PRN 20)    
1 26360U 00025A   14137.43014703  .00000035  00000-0  00000+0 0  3982
2 26360  53.1050 201.8659 0055420  75.7425 235.3963  2.00549285102740
GPS BIIR-5  (PRN 28)    
1 26407U 00040A   14137.24221209 -.00000053  00000-0  00000+0 0  3397
2 26407  56.5289  29.0820 0193485 261.8228  25.6722  2.00564190101414
GPS BIIR-6  (PRN 14)    
1 26605U 00071A   14137.48379260 -.00000020  00000-0  00000+0 0  3505
2 26605  55.5928 269.7039 0077336 245.8651 147.2391  2.00564912 99013
GPS BIIR-7  (PRN 18)    
1 26690U 01004A   14137.35281586  .00000033  00000-0  00000+0 0  2361
2 26690  53.0479 204.9111 0154818 243.4821 148.7493  2.00560387 97410
GPS BIIR-8  (PRN 16)    
1 27663U 03005A   14136.45239567 -.00000051  00000-0  00000+0 0  6722
2 27663  56.6130  28.7808 0076978   9.9346 182.9669  2.00573348 82764
GPS BIIR-9  (PRN 21)    
1 27704U 03010A   14136.44553238  .00000069  00000-0  00000+0 0  5487
2 27704  53.4242 145.0620 0216866 244.0779 269.1989  2.00553514 81550
GPS BIIR-10 (PRN 22)    
1 28129U 03058A   14136.45306725  .00000040  00000-0  00000+0 0  1259
2 28129  52.9206 205.0581 0074279 242.7223 186.7932  2.00556812 76266
GPS BIIR-11 (PRN 19)    
1 28190U 04009A   14136.63597667  .00000012  00000-0  00000+0 0  1272
2 28190  55.3339  90.8197 0102542  23.5102 216.1531  2.00570332 74441
GPS BIIR-12 (PRN 23)    
1 28361U 04023A   14137.43471382 -.00000019  00000-0  00000+0 0  9403
2 28361  54.5412 265.9731 0094659 201.4926  52.1531  2.00550535 72532
GPS BIIR-13 (PRN 02)    
1 28474U 04045A   14137.08160013  .00000066  00000-0  00000+0 0  8320
2 28474  53.8292 144.0386 0136967 221.6389 134.1950  2.00570485 69891
GPS BIIRM-1 (PRN 17)    
1 28874U 05038A   14136.75360637  .00000009  00000-0  00000+0 0   794
2 28874  55.4984  87.9018 0095110 240.3302 344.0016  2.00572856 63281
GPS BIIRM-2 (PRN 31)    
1 29486U 06042A   14137.35960885 -.00000048  00000-0  00000+0 0  4897
2 29486  56.0654 327.1373 0081268 322.1965 258.8038  2.00577867 56014
GPS BIIRM-3 (PRN 12)    
1 29601U 06052A   14136.90744701 -.00000052  00000-0  00000+0 0  3078
2 29601  56.5788  27.7004 0050420  22.2580 274.8024  2.00570159 54914
GPS BIIRM-4 (PRN 15)    
1 32260U 07047A   14137.16134583 -.00000019  00000-0  00000+0 0  2227
2 32260  53.6777 263.3191 0061916  13.5139 242.1062  2.00560701 48303
GPS BIIRM-5 (PRN 29)    
1 32384U 07062A   14137.42446334  .00000012  00000-0  00000+0 0  2525
2 32384  55.5410  88.3937 0017551 305.2521 271.8656  2.00560182 47041
GPS BIIRM-6 (PRN 07)    
1 32711U 08012A   14137.21848229 -.00000048  00000-0  10000-3 0    29
2 32711  55.7825 326.7943 0073176 199.1609 160.5729  2.00568539 45255
GPS BIIRM-8 (PRN 05)    
1 35752U 09043A   14137.26879549  .00000035  00000-0  00000+0 0  7685
2 35752  54.2760 205.2045 0035015  13.9193  48.8956  2.00571943 34824
GPS BIIF-1  (PRN 25)    
1 36585U 10022A   14137.29396101 -.00000056  00000-0  00000+0 0  5761
2 36585  55.9323  25.2609 0034755  35.7430 150.2844  2.00571539 29070
GPS BIIF-2  (PRN 01)    
1 37753U 11036A   14137.17857198  .00000069  00000-0  00000+0 0   410
2 37753  55.0587 145.7175 0029917  13.1527 174.5244  2.00562676 20759
GPS BIIF-3  (PRN 24)    
1 38833U 12053A   14136.90152758 -.00000049  00000-0  00000+0 0  5964
2 38833  54.8296 324.8302 0020198  13.4932 346.5682  2.00556880 11814
GPS BIIF-4  (PRN 27)    
1 39166U 13023A   14136.75832404  .00000005  00000-0  10000-3 0  3658
2 39166  55.1979  85.2951 0011545 354.9070   5.0511  2.00563602  7336
GPS BIIF-5  (PRN 30)    
1 39533U 14008A   14136.75691524 -.00000050  00000-0  00000+0 0  1087
2 39533  54.9541 329.9420 0005481 175.6988 184.3232  2.00560053  1706
